STARLINK-35717          
1 66839U 25280U   25365.50002315 -.02092960  00000+0 -62423-1 0  9993
2 66839  69.9992 147.0815 0003757 270.7938 109.7850 15.38285946  5918
STARLINK-35837          
1 66840U 25280V   25365.50002315 -.02081225  00000+0 -69293-1 0  9999
2 66840  69.9992 147.1336 0003305 265.9535  67.0150 15.34282668  5910
STARLINK-35715          
1 66841U 25280W   25365.50002315 -.02099369  00000+0 -69937-1 0  9993
2 66841  69.9998 147.1312 0003327 266.9649  67.9720 15.34293559  5915
STARLINK-35769          
1 66842U 25280X   25365.50002315 -.02031865  00000+0 -56265-1 0  9991
2 66842  69.9992 147.0423 0003700 269.5936 141.4465 15.40420262  5919
STARLINK-35997          
1 66843U 25280Y   25365.50002315 -.02085769  00000+0 -61022-1 0  9991
2 66843  69.9996 147.0601 0003602 270.7172 127.7881 15.38859845  5918
STARLINK-36073          
1 66844U 25280Z   25365.50002315 -.02041018  00000+0 -63533-1 0  9990
2 66844  70.0000 147.0864 0003662 269.2546 104.4934 15.36880039  5911
STARLINK-36068          
1 66845U 25280AA  25365.50002315 -.02089256  00000+0 -58257-1 0  9994
2 66845  70.0000 147.0358 0003501 273.9477 145.4105 15.40318944  5918
STARLINK-36055          
1 66846U 25280AB  25365.50002315 -.02094243  00000+0 -71713-1 0  9999
2 66846  69.9996 147.1365 0003322 267.7592  61.9431 15.33420595  5911
STARLINK-36061          
1 66847U 25280AC  25365.50002315 -.02084923  00000+0 -69704-1 0  9991
2 66847  69.9998 147.1211 0003399 267.8913  74.7555 15.34157962  5865
STARLINK-36091          
1 66848U 25281A   25365.38820558  .00105937  00000+0  17803-2 0  9995
2 66848  43.0016  10.6056 0002701 268.1968  91.8583 15.50686545  5729
STARLINK-36102          
1 66849U 25281B   25365.38786934  .00098004  00000+0  16560-2 0  9990
2 66849  42.9998  10.6005 0001482 275.8474  84.2217 15.50570314  5729
STARLINK-36105          
1 66850U 25281C   25365.45194200  .00121855  00000+0  20513-2 0  9993
2 66850  43.0007  10.2217 0001337 277.9273  82.1435 15.50571735  5732
