CCSDS_OMM_VERS = 2.0
CREATION_DATE  = 
ORIGINATOR     = 

OBJECT_NAME    = STARLINK-35717
OBJECT_ID      = 2025-280U
CENTER_NAME    = EARTH
REF_FRAME      = TEME
TIME_SYSTEM    = UTC
MEAN_ELEMENT_THEORY = SGP/SGP4

EPOCH          = 2025-12-31T12:00:02.000160
MEAN_MOTION    = 15.38285946
ECCENTRICITY   = .0003757
INCLINATION    = 69.9992
RA_OF_ASC_NODE = 147.0815
ARG_OF_PERICENTER = 270.7938
MEAN_ANOMALY   = 109.7850

EPHEMERIS_TYPE = 0
CLASSIFICATION_TYPE = U
NORAD_CAT_ID   = 66839
ELEMENT_SET_NO = 999
REV_AT_EPOCH   = 591
BSTAR          = -.62423E-1
MEAN_MOTION_DOT = -.209296E-1
MEAN_MOTION_DDOT = 0

CCSDS_OMM_VERS = 2.0
CREATION_DATE  = 
ORIGINATOR     = 

OBJECT_NAME    = STARLINK-35837
OBJECT_ID      = 2025-280V
CENTER_NAME    = EARTH
REF_FRAME      = TEME
TIME_SYSTEM    = UTC
MEAN_ELEMENT_THEORY = SGP/SGP4

EPOCH          = 2025-12-31T12:00:02.000160
MEAN_MOTION    = 15.34282668
ECCENTRICITY   = .0003305
INCLINATION    = 69.9992
RA_OF_ASC_NODE = 147.1336
ARG_OF_PERICENTER = 265.9535
MEAN_ANOMALY   = 67.0150

EPHEMERIS_TYPE = 0
CLASSIFICATION_TYPE = U
NORAD_CAT_ID   = 66840
ELEMENT_SET_NO = 999
REV_AT_EPOCH   = 591
BSTAR          = -.69293E-1
MEAN_MOTION_DOT = -.2081225E-1
MEAN_MOTION_DDOT = 0

CCSDS_OMM_VERS = 2.0
CREATION_DATE  = 
ORIGINATOR     = 

OBJECT_NAME    = STARLINK-35715
OBJECT_ID      = 2025-280W
CENTER_NAME    = EARTH
REF_FRAME      = TEME
TIME_SYSTEM    = UTC
MEAN_ELEMENT_THEORY = SGP/SGP4

EPOCH          = 2025-12-31T12:00:02.000160
MEAN_MOTION    = 15.34293559
ECCENTRICITY   = .0003327
INCLINATION    = 69.9998
RA_OF_ASC_NODE = 147.1312
ARG_OF_PERICENTER = 266.9649
MEAN_ANOMALY   = 67.9720

EPHEMERIS_TYPE = 0
CLASSIFICATION_TYPE = U
NORAD_CAT_ID   = 66841
ELEMENT_SET_NO = 999
REV_AT_EPOCH   = 591
BSTAR          = -.69937E-1
MEAN_MOTION_DOT = -.2099369E-1
MEAN_MOTION_DDOT = 0

CCSDS_OMM_VERS = 2.0
CREATION_DATE  = 
ORIGINATOR     = 

OBJECT_NAME    = STARLINK-35769
OBJECT_ID      = 2025-280X
CENTER_NAME    = EARTH
REF_FRAME      = TEME
TIME_SYSTEM    = UTC
MEAN_ELEMENT_THEORY = SGP/SGP4

EPOCH          = 2025-12-31T12:00:02.000160
MEAN_MOTION    = 15.40420262
ECCENTRICITY   = .00037
INCLINATION    = 69.9992
RA_OF_ASC_NODE = 147.0423
ARG_OF_PERICENTER = 269.5936
MEAN_ANOMALY   = 141.4465

EPHEMERIS_TYPE = 0
CLASSIFICATION_TYPE = U
NORAD_CAT_ID   = 66842
ELEMENT_SET_NO = 999
REV_AT_EPOCH   = 591
BSTAR          = -.56265E-1
MEAN_MOTION_DOT = -.2031865E-1
MEAN_MOTION_DDOT = 0

CCSDS_OMM_VERS = 2.0
CREATION_DATE  = 
ORIGINATOR     = 

OBJECT_NAME    = STARLINK-35997
OBJECT_ID      = 2025-280Y
CENTER_NAME    = EARTH
REF_FRAME      = TEME
TIME_SYSTEM    = UTC
MEAN_ELEMENT_THEORY = SGP/SGP4

EPOCH          = 2025-12-31T12:00:02.000160
MEAN_MOTION    = 15.38859845
ECCENTRICITY   = .0003602
INCLINATION    = 69.9996
RA_OF_ASC_NODE = 147.0601
ARG_OF_PERICENTER = 270.7172
MEAN_ANOMALY   = 127.7881

EPHEMERIS_TYPE = 0
CLASSIFICATION_TYPE = U
NORAD_CAT_ID   = 66843
ELEMENT_SET_NO = 999
REV_AT_EPOCH   = 591
BSTAR          = -.61022E-1
MEAN_MOTION_DOT = -.2085769E-1
MEAN_MOTION_DDOT = 0

CCSDS_OMM_VERS = 2.0
CREATION_DATE  = 
ORIGINATOR     = 

OBJECT_NAME    = STARLINK-36073
OBJECT_ID      = 2025-280Z
CENTER_NAME    = EARTH
REF_FRAME      = TEME
TIME_SYSTEM    = UTC
MEAN_ELEMENT_THEORY = SGP/SGP4

EPOCH          = 2025-12-31T12:00:02.000160
MEAN_MOTION    = 15.36880039
ECCENTRICITY   = .0003662
INCLINATION    = 70.0000
RA_OF_ASC_NODE = 147.0864
ARG_OF_PERICENTER = 269.2546
MEAN_ANOMALY   = 104.4934

EPHEMERIS_TYPE = 0
CLASSIFICATION_TYPE = U
NORAD_CAT_ID   = 66844
ELEMENT_SET_NO = 999
REV_AT_EPOCH   = 591
BSTAR          = -.63533E-1
MEAN_MOTION_DOT = -.2041018E-1
MEAN_MOTION_DDOT = 0

CCSDS_OMM_VERS = 2.0
CREATION_DATE  = 
ORIGINATOR     = 

OBJECT_NAME    = STARLINK-36068
OBJECT_ID      = 2025-280AA
CENTER_NAME    = EARTH
REF_FRAME      = TEME
TIME_SYSTEM    = UTC
MEAN_ELEMENT_THEORY = SGP/SGP4

EPOCH          = 2025-12-31T12:00:02.000160
MEAN_MOTION    = 15.40318944
ECCENTRICITY   = .0003501
INCLINATION    = 70.0000
RA_OF_ASC_NODE = 147.0358
ARG_OF_PERICENTER = 273.9477
MEAN_ANOMALY   = 145.4105

EPHEMERIS_TYPE = 0
CLASSIFICATION_TYPE = U
NORAD_CAT_ID   = 66845
ELEMENT_SET_NO = 999
REV_AT_EPOCH   = 591
BSTAR          = -.58257E-1
MEAN_MOTION_DOT = -.2089256E-1
MEAN_MOTION_DDOT = 0

CCSDS_OMM_VERS = 2.0
CREATION_DATE  = 
ORIGINATOR     = 

OBJECT_NAME    = STARLINK-36055
OBJECT_ID      = 2025-280AB
CENTER_NAME    = EARTH
REF_FRAME      = TEME
TIME_SYSTEM    = UTC
MEAN_ELEMENT_THEORY = SGP/SGP4

EPOCH          = 2025-12-31T12:00:02.000160
MEAN_MOTION    = 15.33420595
ECCENTRICITY   = .0003322
INCLINATION    = 69.9996
RA_OF_ASC_NODE = 147.1365
ARG_OF_PERICENTER = 267.7592
MEAN_ANOMALY   = 61.9431

EPHEMERIS_TYPE = 0
CLASSIFICATION_TYPE = U
NORAD_CAT_ID   = 66846
ELEMENT_SET_NO = 999
REV_AT_EPOCH   = 591
BSTAR          = -.71713E-1
MEAN_MOTION_DOT = -.2094243E-1
MEAN_MOTION_DDOT = 0

CCSDS_OMM_VERS = 2.0
CREATION_DATE  = 
ORIGINATOR     = 

OBJECT_NAME    = STARLINK-36061
OBJECT_ID      = 2025-280AC
CENTER_NAME    = EARTH
REF_FRAME      = TEME
TIME_SYSTEM    = UTC
MEAN_ELEMENT_THEORY = SGP/SGP4

EPOCH          = 2025-12-31T12:00:02.000160
MEAN_MOTION    = 15.34157962
ECCENTRICITY   = .0003399
INCLINATION    = 69.9998
RA_OF_ASC_NODE = 147.1211
ARG_OF_PERICENTER = 267.8913
MEAN_ANOMALY   = 74.7555

EPHEMERIS_TYPE = 0
CLASSIFICATION_TYPE = U
NORAD_CAT_ID   = 66847
ELEMENT_SET_NO = 999
REV_AT_EPOCH   = 586
BSTAR          = -.69704E-1
MEAN_MOTION_DOT = -.2084923E-1
MEAN_MOTION_DDOT = 0

CCSDS_OMM_VERS = 2.0
CREATION_DATE  = 
ORIGINATOR     = 

OBJECT_NAME    = STARLINK-36091
OBJECT_ID      = 2025-281A
CENTER_NAME    = EARTH
REF_FRAME      = TEME
TIME_SYSTEM    = UTC
MEAN_ELEMENT_THEORY = SGP/SGP4

EPOCH          = 2025-12-31T09:19:00.962112
MEAN_MOTION    = 15.50686545
ECCENTRICITY   = .0002701
INCLINATION    = 43.0016
RA_OF_ASC_NODE = 10.6056
ARG_OF_PERICENTER = 268.1968
MEAN_ANOMALY   = 91.8583

EPHEMERIS_TYPE = 0
CLASSIFICATION_TYPE = U
NORAD_CAT_ID   = 66848
ELEMENT_SET_NO = 999
REV_AT_EPOCH   = 572
BSTAR          = .17803E-2
MEAN_MOTION_DOT = .105937E-2
MEAN_MOTION_DDOT = 0

CCSDS_OMM_VERS = 2.0
CREATION_DATE  = 
ORIGINATOR     = 

OBJECT_NAME    = STARLINK-36102
OBJECT_ID      = 2025-281B
CENTER_NAME    = EARTH
REF_FRAME      = TEME
TIME_SYSTEM    = UTC
MEAN_ELEMENT_THEORY = SGP/SGP4

EPOCH          = 2025-12-31T09:18:31.910976
MEAN_MOTION    = 15.50570314
ECCENTRICITY   = .0001482
INCLINATION    = 42.9998
RA_OF_ASC_NODE = 10.6005
ARG_OF_PERICENTER = 275.8474
MEAN_ANOMALY   = 84.2217

EPHEMERIS_TYPE = 0
CLASSIFICATION_TYPE = U
NORAD_CAT_ID   = 66849
ELEMENT_SET_NO = 999
REV_AT_EPOCH   = 572
BSTAR          = .1656E-2
MEAN_MOTION_DOT = .98004E-3
MEAN_MOTION_DDOT = 0

CCSDS_OMM_VERS = 2.0
CREATION_DATE  = 
ORIGINATOR     = 

OBJECT_NAME    = STARLINK-36105
OBJECT_ID      = 2025-281C
CENTER_NAME    = EARTH
REF_FRAME      = TEME
TIME_SYSTEM    = UTC
MEAN_ELEMENT_THEORY = SGP/SGP4

EPOCH          = 2025-12-31T10:50:47.788800
MEAN_MOTION    = 15.50571735
ECCENTRICITY   = .0001337
INCLINATION    = 43.0007
RA_OF_ASC_NODE = 10.2217
ARG_OF_PERICENTER = 277.9273
MEAN_ANOMALY   = 82.1435

EPHEMERIS_TYPE = 0
CLASSIFICATION_TYPE = U
NORAD_CAT_ID   = 66850
ELEMENT_SET_NO = 999
REV_AT_EPOCH   = 573
BSTAR          = .20513E-2
MEAN_MOTION_DOT = .121855E-2
MEAN_MOTION_DDOT = 0

